[{"OBJECT_NAME":"EDISON-1","OBJECT_ID":"2025-009B","EPOCH":"2026-03-09T19:16:13.822464","MEAN_MOTION":15.29042904,"ECCENTRICITY":0.00043285,"INCLINATION":97.4042,"RA_OF_ASC_NODE":151.6286,"ARG_OF_PERICENTER":306.4185,"MEAN_ANOMALY":53.6655,"EPHEMERIS_TYPE":0,"CLASSIFICATION_TYPE":"U","NORAD_CAT_ID":62610,"ELEMENT_SET_NO":999,"REV_AT_EPOCH":6375,"BSTAR":0.00052814963,"MEAN_MOTION_DOT":0.00014835,"MEAN_MOTION_DDOT":0},{"OBJECT_NAME":"STARLINK-34846","OBJECT_ID":"2025-288P","EPOCH":"2026-03-09T21:56:39.669792","MEAN_MOTION":15.27599691,"ECCENTRICITY":6.339e-5,"INCLINATION":42.999,"RA_OF_ASC_NODE":22.0204,"ARG_OF_PERICENTER":163.4143,"MEAN_ANOMALY":196.6729,"EPHEMERIS_TYPE":0,"CLASSIFICATION_TYPE":"U","NORAD_CAT_ID":66972,"ELEMENT_SET_NO":999,"REV_AT_EPOCH":1532,"BSTAR":0.0013731567,"MEAN_MOTION_DOT":0.0003774,"MEAN_MOTION_DDOT":0}]
